ELEKTRO-L 3             
1 44903U 19095A   26196.87629425 -.00000107  00000+0  00000+0 0  9998
2 44903   0.3283  82.1021 0001128  20.5636 222.4997  1.00271035 23993
GONETS-M 14             
1 44905U 19096A   26196.86655204  .00000075  00000+0  47202-3 0  9996
2 44905  82.5221  66.8592 0014421  88.9779 271.2953 12.42870889297242
GONETS-M 15             
1 44906U 19096B   26196.89587166  .00000026  00000+0  11749-3 0  9994
2 44906  82.5241  67.3070 0016097 110.7194 249.5612 12.42883031297218
GONETS-M 16             
1 44907U 19096C   26196.84117756  .00000077  00000+0  48137-3 0  9991
2 44907  82.5185  66.2796 0011020 149.8817 210.2899 12.42892572297194
RS-44 & BREEZE-KM R/B   
1 44909U 19096E   26196.77564657  .00000008  00000+0 -18031-4 0  9997
2 44909  82.5242 320.7086 0218527  77.6409 284.9058 12.79748935306005
JILIN-1 KUANFU 01       
1 45016U 20003A   26196.76528470  .00001583  00000+0  98898-4 0  9996
2 45016  97.5021 270.1637 0009303 194.7948 165.3011 15.10869245359640
XINGYUN-2 01            
1 45602U 20028A   26196.86650324  .00000626  00000+0  40242-4 0  9996
2 45602  97.4869 188.7016 0010867 102.0209 258.2240 15.11913774339174
XINGYUN-2 02            
1 45603U 20028B   26196.85028450  .00000370  00000+0  25529-4 0  9992
2 45603  97.5069 202.3396 0011196 163.1592 197.0012 15.11638208339163
HAIYANG-1D              
1 45721U 20036A   26196.85642858  .00000047  00000+0  32021-4 0  9992
2 45721  98.4559 137.9141 0004015  69.2096 290.9519 14.34181940319080
M2 PATHFINDER           
1 45727U 20037E   26196.50814969  .00000617  00000+0  48206-4 0  9990
2 45727  97.8142  28.0603 0012891  61.5732 298.6791 15.04791762329752
GAOFEN DUOMO (GFDM)     
1 45856U 20042A   26196.86608476  .00000352  00000+0  57151-4 0  9997
2 45856  97.7734 255.7070 0010726 351.1787   8.9233 14.76802944325247
ZIYUAN 3-03 (ZY 3-03)   
1 45939U 20051A   26196.86179313 -.00000238  00000+0 -75286-5 0  9997
2 45939  97.5370 263.8797 0002835 244.3683 115.7260 15.21201694331700
NEMO-HD                 
1 46277U 20061F   26196.82393916  .00006509  00000+0  13923-3 0  9990
2 46277  97.1904 258.4960 0001002  99.2436 260.8927 15.45147004326408
NAPA-1                  
1 46320U 20061BA  26196.84407543  .00058676  00000+0  44780-3 0  9990
2 46320  97.2439 272.0466 0002580 175.1573 184.9716 15.72036736326234
JILIN-1 GAOFEN 3E       
1 46457U 20065D   26196.79469347  .00048662  00000+0  45107-3 0  9997
2 46457  97.2207 250.1361 0010173  70.3164 289.9194 15.67286419324231
JILIN-1 GAOFEN 3F       
1 46458U 20065E   26196.81054579  .00042437  00000+0  44857-3 0  9993
2 46458  97.2164 247.3397 0011462  56.0781 304.1566 15.63993101324174
JILIN-1 GAOFEN 3G       
1 46459U 20065F   26196.81860487  .00088662  00000+0  54318-3 0  9990
2 46459  97.2218 254.6838 0005413 270.8681  89.1965 15.77035609324448
JILIN-1 GAOFEN 3H       
1 46460U 20065G   26196.86394503  .00062713  00000+0  47153-3 0  9996
2 46460  97.2166 250.8605 0006498 199.8762 160.2249 15.72353038324389
HAIYANG-2C              
1 46469U 20066A   26196.86678286  .00000084  00000+0  15049-3 0  9991
2 46469  65.9966 143.8786 0007583 237.1917 122.8422 13.83373469293464
HJ-2A                   
1 46478U 20067A   26196.83079442 -.00000080  00000+0 -43637-5 0  9992
2 46478  97.8827 274.5248 0004192 153.5823 206.5602 14.76547735312485
HJ-2B                   
1 46479U 20067B   26196.86733360  .00000521  00000+0  81902-4 0  9996
2 46479  97.8892 275.6052 0001967 103.8286 256.3143 14.76511944312498
GONETS-M 17             
1 46486U 20068A   26196.86662887  .00000037  00000+0  19578-3 0  9991
2 46486  82.5012 329.6599 0021796 335.1326  24.8702 12.42874062262727
GONETS-M 18             
1 46487U 20068B   26196.83027463 -.00000025  00000+0 -25047-3 0  9991
2 46487  82.4966 328.7895 0019033 331.7743  28.2304 12.42874759262707
GONETS-M 19             
1 46488U 20068C   26196.88578838  .00000005  00000+0 -36665-4 0  9990
2 46488  82.4990 329.2106 0013018 348.5454  11.5328 12.42892772262816
DEKART                  
1 46493U 20068H   26196.83994208  .00006973  00000+0  18904-3 0  9998
2 46493  97.8737 208.1754 0009325 170.6482 189.4936 15.37958308320175
NORBI                   
1 46494U 20068J   26196.83810858  .00015223  00000+0  27646-3 0  9998
2 46494  97.8611 215.3541 0008362 141.8217 218.3627 15.49639771320641
SALSAT                  
1 46495U 20068K   26196.46428795  .00004051  00000+0  14153-3 0  9999
2 46495  97.8855 201.2595 0009213 191.9024 168.1999 15.30174422319686
