OBJECT_NAME,OBJECT_ID,EPOCH,MEAN_MOTION,ECCENTRICITY,INCLINATION,RA_OF_ASC_NODE,ARG_OF_PERICENTER,MEAN_ANOMALY,EPHEMERIS_TYPE,CLASSIFICATION_TYPE,NORAD_CAT_ID,ELEMENT_SET_NO,REV_AT_EPOCH,BSTAR,MEAN_MOTION_DOT,MEAN_MOTION_DDOT
ELEKTRO-L 3,2019-095A,2026-07-15T21:01:51.823200,1.00271035,.0001128,0.3283,82.1021,20.5636,222.4997,0,U,44903,999,2399,0,-.107E-5,0
GONETS-M 14,2019-096A,2026-07-15T20:47:50.096256,12.42870889,.0014421,82.5221,66.8592,88.9779,271.2953,0,U,44905,999,29724,.47202E-3,.75E-6,0
GONETS-M 15,2019-096B,2026-07-15T21:30:03.311424,12.42883031,.0016097,82.5241,67.3070,110.7194,249.5612,0,U,44906,999,29721,.11749E-3,.26E-6,0
GONETS-M 16,2019-096C,2026-07-15T20:11:17.741184,12.42892572,.001102,82.5185,66.2796,149.8817,210.2899,0,U,44907,999,29719,.48137E-3,.77E-6,0
RS-44 & BREEZE-KM R/B,2019-096E,2026-07-15T18:36:55.863648,12.79748935,.0218527,82.5242,320.7086,77.6409,284.9058,0,U,44909,999,30600,-.18031E-4,.8E-7,0
JILIN-1 KUANFU 01,2020-003A,2026-07-15T18:22:00.598080,15.10869245,.0009303,97.5021,270.1637,194.7948,165.3011,0,U,45016,999,35964,.98898E-4,.1583E-4,0
XINGYUN-2 01,2020-028A,2026-07-15T20:47:45.879936,15.11913774,.0010867,97.4869,188.7016,102.0209,258.2240,0,U,45602,999,33917,.40242E-4,.626E-5,0
XINGYUN-2 02,2020-028B,2026-07-15T20:24:24.580800,15.11638208,.0011196,97.5069,202.3396,163.1592,197.0012,0,U,45603,999,33916,.25529E-4,.37E-5,0
HAIYANG-1D,2020-036A,2026-07-15T20:33:15.429312,14.34181940,.0004015,98.4559,137.9141,69.2096,290.9519,0,U,45721,999,31908,.32021E-4,.47E-6,0
M2 PATHFINDER,2020-037E,2026-07-15T12:11:44.133216,15.04791762,.0012891,97.8142,28.0603,61.5732,298.6791,0,U,45727,999,32975,.48205888E-4,.617E-5,0
GAOFEN DUOMO (GFDM),2020-042A,2026-07-15T20:47:09.723264,14.76802944,.0010726,97.7734,255.7070,351.1787,8.9233,0,U,45856,999,32524,.57151E-4,.352E-5,0
ZIYUAN 3-03 (ZY 3-03),2020-051A,2026-07-15T20:40:58.926432,15.21201694,.0002835,97.5370,263.8797,244.3683,115.7260,0,U,45939,999,33170,-.75286E-5,-.238E-5,0
NEMO-HD,2020-061F,2026-07-15T19:46:28.343424,15.45147004,.0001002,97.1904,258.4960,99.2436,260.8927,0,U,46277,999,32640,.13923E-3,.6509E-4,0
NAPA-1,2020-061BA,2026-07-15T20:15:28.117152,15.72036736,.000258,97.2439,272.0466,175.1573,184.9716,0,U,46320,999,32623,.4478E-3,.58676E-3,0
JILIN-1 GAOFEN 3E,2020-065D,2026-07-15T19:04:21.515808,15.67286419,.0010173,97.2207,250.1361,70.3164,289.9194,0,U,46457,999,32423,.45107E-3,.48662E-3,0
JILIN-1 GAOFEN 3F,2020-065E,2026-07-15T19:27:11.156256,15.63993101,.0011462,97.2164,247.3397,56.0781,304.1566,0,U,46458,999,32417,.44857E-3,.42437E-3,0
JILIN-1 GAOFEN 3G,2020-065F,2026-07-15T19:38:47.460768,15.77035609,.0005413,97.2218,254.6838,270.8681,89.1965,0,U,46459,999,32444,.54318E-3,.88662E-3,0
JILIN-1 GAOFEN 3H,2020-065G,2026-07-15T20:44:04.850592,15.72353038,.0006498,97.2166,250.8605,199.8762,160.2249,0,U,46460,999,32438,.47153E-3,.62713E-3,0
HAIYANG-2C,2020-066A,2026-07-15T20:48:10.039104,13.83373469,.0007583,65.9966,143.8786,237.1917,122.8422,0,U,46469,999,29346,.15049E-3,.84E-6,0
HJ-2A,2020-067A,2026-07-15T19:56:20.637888,14.76547735,.0004192,97.8827,274.5248,153.5823,206.5602,0,U,46478,999,31248,-.43637E-5,-.8E-6,0
HJ-2B,2020-067B,2026-07-15T20:48:57.623040,14.76511944,.0001967,97.8892,275.6052,103.8286,256.3143,0,U,46479,999,31249,.81902E-4,.521E-5,0
GONETS-M 17,2020-068A,2026-07-15T20:47:56.734368,12.42874062,.0021796,82.5012,329.6599,335.1326,24.8702,0,U,46486,999,26272,.19578E-3,.37E-6,0
GONETS-M 18,2020-068B,2026-07-15T19:55:35.728032,12.42874759,.0019033,82.4966,328.7895,331.7743,28.2304,0,U,46487,999,26270,-.25047E-3,-.25E-6,0
GONETS-M 19,2020-068C,2026-07-15T21:15:32.116032,12.42892772,.0013018,82.4990,329.2106,348.5454,11.5328,0,U,46488,999,26281,-.36665E-4,.5E-7,0
DEKART,2020-068H,2026-07-15T20:09:30.995712,15.37958308,.0009325,97.8737,208.1754,170.6482,189.4936,0,U,46493,999,32017,.18904E-3,.6973E-4,0
NORBI,2020-068J,2026-07-15T20:06:52.581312,15.49639771,.0008362,97.8611,215.3541,141.8217,218.3627,0,U,46494,999,32064,.27646E-3,.15223E-3,0
SALSAT,2020-068K,2026-07-15T11:08:34.478880,15.30174422,.00092137,97.8855,201.2595,191.9024,168.1999,0,U,46495,999,31968,.14152956E-3,.4051E-4,0
